SL-3 R/B                
1 13403U 82079B   25353.83929375  .00004778  00000+0  19618-3 0  9994
2 13403  81.1477 287.2914 0027089  76.3027 284.1219 15.23664914365535
SL-14 R/B               
1 13553U 82092B   25353.15319023  .00000373  00000+0  39212-4 0  9993
2 13553  82.5677 216.7140 0019636 204.6884 274.1062 14.86561601316967
SL-3 R/B                
1 13819U 83010B   25353.57877753  .00010394  00000+0  22905-3 0  9998
2 13819  81.1051 100.2705 0016803 326.9328  33.0863 15.43632750345579
SL-3 R/B                
1 14208U 83075B   25353.82213641  .00007710  00000+0  21855-3 0  9991
2 14208  97.6099 350.5439 0023508 150.6520 209.6049 15.36269692317889
COSMOS 1536             
1 14699U 84013A   25353.50988935  .00004787  00000+0  20423-3 0  9999
2 14699  82.5439 187.4495 0013989 200.1382 159.9304 15.22591085260418
SL-14 R/B               
1 14820U 84027B   25353.35706431  .00000381  00000+0  40845-4 0  9999
2 14820  82.5416 320.3501 0016548 236.8678 123.0951 14.85881067235707
SL-8 R/B                
1 15483U 85006B   25353.29307748  .00000185  00000+0  69989-4 0  9996
2 15483  74.0464  49.0781 0018967 339.8418  86.3196 14.37724714142475
SL-12 R/B(2)            
1 15772U 85042D   25353.85143617  .00000129  00000+0  79351-4 0  9994
2 15772  71.1077 256.3961 0037436 251.0723 172.3317 14.21954013103044
SL-14 R/B               
1 15945U 85069B   25353.70292291  .00000407  00000+0  43208-4 0  9993
2 15945  82.5274 100.1571 0020347  97.1078 263.2453 14.86332016160957
SL-16 R/B               
1 16182U 85097B   25353.83215490  .00000039  00000+0  43667-4 0  9998
2 16182  71.0038 308.6713 0007163 359.2447  17.5838 14.16587712 75925
SL-14 R/B               
1 16496U 86006B   25353.02674105  .00000466  00000+0  46818-4 0  9995
2 16496  82.5266 335.6350 0076716 178.8791 181.2613 14.86679464137222
COSMOS 1743             
1 16719U 86034A   25353.74513541  .00022301  00000+0  36273-3 0  9994
2 16719  82.5339 157.3131 0004840 223.1180 136.9694 15.52522153167823
