CCSDS_OMM_VERS = 2.0
CREATION_DATE  = 
ORIGINATOR     = 

OBJECT_NAME    = SL-3 R/B
OBJECT_ID      = 1982-079B
CENTER_NAME    = EARTH
REF_FRAME      = TEME
TIME_SYSTEM    = UTC
MEAN_ELEMENT_THEORY = SGP/SGP4

EPOCH          = 2025-12-19T20:08:34.980000
MEAN_MOTION    = 15.23664914
ECCENTRICITY   = .0027089
INCLINATION    = 81.1477
RA_OF_ASC_NODE = 287.2914
ARG_OF_PERICENTER = 76.3027
MEAN_ANOMALY   = 284.1219

EPHEMERIS_TYPE = 0
CLASSIFICATION_TYPE = U
NORAD_CAT_ID   = 13403
ELEMENT_SET_NO = 999
REV_AT_EPOCH   = 36553
BSTAR          = .19618E-3
MEAN_MOTION_DOT = .4778E-4
MEAN_MOTION_DDOT = 0

CCSDS_OMM_VERS = 2.0
CREATION_DATE  = 
ORIGINATOR     = 

OBJECT_NAME    = SL-14 R/B
OBJECT_ID      = 1982-092B
CENTER_NAME    = EARTH
REF_FRAME      = TEME
TIME_SYSTEM    = UTC
MEAN_ELEMENT_THEORY = SGP/SGP4

EPOCH          = 2025-12-19T03:40:35.635872
MEAN_MOTION    = 14.86561601
ECCENTRICITY   = .00196368
INCLINATION    = 82.5677
RA_OF_ASC_NODE = 216.7140
ARG_OF_PERICENTER = 204.6884
MEAN_ANOMALY   = 274.1062

EPHEMERIS_TYPE = 0
CLASSIFICATION_TYPE = U
NORAD_CAT_ID   = 13553
ELEMENT_SET_NO = 999
REV_AT_EPOCH   = 31696
BSTAR          = .3921197E-4
MEAN_MOTION_DOT = .373E-5
MEAN_MOTION_DDOT = 0

CCSDS_OMM_VERS = 2.0
CREATION_DATE  = 
ORIGINATOR     = 

OBJECT_NAME    = SL-3 R/B
OBJECT_ID      = 1983-010B
CENTER_NAME    = EARTH
REF_FRAME      = TEME
TIME_SYSTEM    = UTC
MEAN_ELEMENT_THEORY = SGP/SGP4

EPOCH          = 2025-12-19T13:53:26.378592
MEAN_MOTION    = 15.43632750
ECCENTRICITY   = .0016803
INCLINATION    = 81.1051
RA_OF_ASC_NODE = 100.2705
ARG_OF_PERICENTER = 326.9328
MEAN_ANOMALY   = 33.0863

EPHEMERIS_TYPE = 0
CLASSIFICATION_TYPE = U
NORAD_CAT_ID   = 13819
ELEMENT_SET_NO = 999
REV_AT_EPOCH   = 34557
BSTAR          = .22905E-3
MEAN_MOTION_DOT = .10394E-3
MEAN_MOTION_DDOT = 0

CCSDS_OMM_VERS = 2.0
CREATION_DATE  = 
ORIGINATOR     = 

OBJECT_NAME    = SL-3 R/B
OBJECT_ID      = 1983-075B
CENTER_NAME    = EARTH
REF_FRAME      = TEME
TIME_SYSTEM    = UTC
MEAN_ELEMENT_THEORY = SGP/SGP4

EPOCH          = 2025-12-19T19:43:52.585824
MEAN_MOTION    = 15.36269692
ECCENTRICITY   = .0023508
INCLINATION    = 97.6099
RA_OF_ASC_NODE = 350.5439
ARG_OF_PERICENTER = 150.6520
MEAN_ANOMALY   = 209.6049

EPHEMERIS_TYPE = 0
CLASSIFICATION_TYPE = U
NORAD_CAT_ID   = 14208
ELEMENT_SET_NO = 999
REV_AT_EPOCH   = 31788
BSTAR          = .21855E-3
MEAN_MOTION_DOT = .771E-4
MEAN_MOTION_DDOT = 0

CCSDS_OMM_VERS = 2.0
CREATION_DATE  = 
ORIGINATOR     = 

OBJECT_NAME    = COSMOS 1536
OBJECT_ID      = 1984-013A
CENTER_NAME    = EARTH
REF_FRAME      = TEME
TIME_SYSTEM    = UTC
MEAN_ELEMENT_THEORY = SGP/SGP4

EPOCH          = 2025-12-19T12:14:14.439840
MEAN_MOTION    = 15.22591085
ECCENTRICITY   = .0013989
INCLINATION    = 82.5439
RA_OF_ASC_NODE = 187.4495
ARG_OF_PERICENTER = 200.1382
MEAN_ANOMALY   = 159.9304

EPHEMERIS_TYPE = 0
CLASSIFICATION_TYPE = U
NORAD_CAT_ID   = 14699
ELEMENT_SET_NO = 999
REV_AT_EPOCH   = 26041
BSTAR          = .20423E-3
MEAN_MOTION_DOT = .4787E-4
MEAN_MOTION_DDOT = 0

CCSDS_OMM_VERS = 2.0
CREATION_DATE  = 
ORIGINATOR     = 

OBJECT_NAME    = SL-14 R/B
OBJECT_ID      = 1984-027B
CENTER_NAME    = EARTH
REF_FRAME      = TEME
TIME_SYSTEM    = UTC
MEAN_ELEMENT_THEORY = SGP/SGP4

EPOCH          = 2025-12-19T08:34:10.356384
MEAN_MOTION    = 14.85881067
ECCENTRICITY   = .0016548
INCLINATION    = 82.5416
RA_OF_ASC_NODE = 320.3501
ARG_OF_PERICENTER = 236.8678
MEAN_ANOMALY   = 123.0951

EPHEMERIS_TYPE = 0
CLASSIFICATION_TYPE = U
NORAD_CAT_ID   = 14820
ELEMENT_SET_NO = 999
REV_AT_EPOCH   = 23570
BSTAR          = .40845E-4
MEAN_MOTION_DOT = .381E-5
MEAN_MOTION_DDOT = 0

CCSDS_OMM_VERS = 2.0
CREATION_DATE  = 
ORIGINATOR     = 

OBJECT_NAME    = SL-8 R/B
OBJECT_ID      = 1985-006B
CENTER_NAME    = EARTH
REF_FRAME      = TEME
TIME_SYSTEM    = UTC
MEAN_ELEMENT_THEORY = SGP/SGP4

EPOCH          = 2025-12-19T07:02:01.894272
MEAN_MOTION    = 14.37724714
ECCENTRICITY   = .0018967
INCLINATION    = 74.0464
RA_OF_ASC_NODE = 49.0781
ARG_OF_PERICENTER = 339.8418
MEAN_ANOMALY   = 86.3196

EPHEMERIS_TYPE = 0
CLASSIFICATION_TYPE = U
NORAD_CAT_ID   = 15483
ELEMENT_SET_NO = 999
REV_AT_EPOCH   = 14247
BSTAR          = .69989E-4
MEAN_MOTION_DOT = .185E-5
MEAN_MOTION_DDOT = 0

CCSDS_OMM_VERS = 2.0
CREATION_DATE  = 
ORIGINATOR     = 

OBJECT_NAME    = SL-12 R/B(2)
OBJECT_ID      = 1985-042D
CENTER_NAME    = EARTH
REF_FRAME      = TEME
TIME_SYSTEM    = UTC
MEAN_ELEMENT_THEORY = SGP/SGP4

EPOCH          = 2025-12-19T20:26:04.085088
MEAN_MOTION    = 14.21954013
ECCENTRICITY   = .0037436
INCLINATION    = 71.1077
RA_OF_ASC_NODE = 256.3961
ARG_OF_PERICENTER = 251.0723
MEAN_ANOMALY   = 172.3317

EPHEMERIS_TYPE = 0
CLASSIFICATION_TYPE = U
NORAD_CAT_ID   = 15772
ELEMENT_SET_NO = 999
REV_AT_EPOCH   = 10304
BSTAR          = .79351E-4
MEAN_MOTION_DOT = .129E-5
MEAN_MOTION_DDOT = 0

CCSDS_OMM_VERS = 2.0
CREATION_DATE  = 
ORIGINATOR     = 

OBJECT_NAME    = SL-14 R/B
OBJECT_ID      = 1985-069B
CENTER_NAME    = EARTH
REF_FRAME      = TEME
TIME_SYSTEM    = UTC
MEAN_ELEMENT_THEORY = SGP/SGP4

EPOCH          = 2025-12-19T16:52:12.539424
MEAN_MOTION    = 14.86332016
ECCENTRICITY   = .0020347
INCLINATION    = 82.5274
RA_OF_ASC_NODE = 100.1571
ARG_OF_PERICENTER = 97.1078
MEAN_ANOMALY   = 263.2453

EPHEMERIS_TYPE = 0
CLASSIFICATION_TYPE = U
NORAD_CAT_ID   = 15945
ELEMENT_SET_NO = 999
REV_AT_EPOCH   = 16095
BSTAR          = .43208E-4
MEAN_MOTION_DOT = .407E-5
MEAN_MOTION_DDOT = 0

CCSDS_OMM_VERS = 2.0
CREATION_DATE  = 
ORIGINATOR     = 

OBJECT_NAME    = SL-16 R/B
OBJECT_ID      = 1985-097B
CENTER_NAME    = EARTH
REF_FRAME      = TEME
TIME_SYSTEM    = UTC
MEAN_ELEMENT_THEORY = SGP/SGP4

EPOCH          = 2025-12-19T19:58:18.183360
MEAN_MOTION    = 14.16587712
ECCENTRICITY   = .0007163
INCLINATION    = 71.0038
RA_OF_ASC_NODE = 308.6713
ARG_OF_PERICENTER = 359.2447
MEAN_ANOMALY   = 17.5838

EPHEMERIS_TYPE = 0
CLASSIFICATION_TYPE = U
NORAD_CAT_ID   = 16182
ELEMENT_SET_NO = 999
REV_AT_EPOCH   = 7592
BSTAR          = .43667E-4
MEAN_MOTION_DOT = .39E-6
MEAN_MOTION_DDOT = 0

CCSDS_OMM_VERS = 2.0
CREATION_DATE  = 
ORIGINATOR     = 

OBJECT_NAME    = SL-14 R/B
OBJECT_ID      = 1986-006B
CENTER_NAME    = EARTH
REF_FRAME      = TEME
TIME_SYSTEM    = UTC
MEAN_ELEMENT_THEORY = SGP/SGP4

EPOCH          = 2025-12-19T00:38:30.426720
MEAN_MOTION    = 14.86679464
ECCENTRICITY   = .0076716
INCLINATION    = 82.5266
RA_OF_ASC_NODE = 335.6350
ARG_OF_PERICENTER = 178.8791
MEAN_ANOMALY   = 181.2613

EPHEMERIS_TYPE = 0
CLASSIFICATION_TYPE = U
NORAD_CAT_ID   = 16496
ELEMENT_SET_NO = 999
REV_AT_EPOCH   = 13722
BSTAR          = .46818E-4
MEAN_MOTION_DOT = .466E-5
MEAN_MOTION_DDOT = 0

CCSDS_OMM_VERS = 2.0
CREATION_DATE  = 
ORIGINATOR     = 

OBJECT_NAME    = COSMOS 1743
OBJECT_ID      = 1986-034A
CENTER_NAME    = EARTH
REF_FRAME      = TEME
TIME_SYSTEM    = UTC
MEAN_ELEMENT_THEORY = SGP/SGP4

EPOCH          = 2025-12-19T17:52:59.699424
MEAN_MOTION    = 15.52522153
ECCENTRICITY   = .000484
INCLINATION    = 82.5339
RA_OF_ASC_NODE = 157.3131
ARG_OF_PERICENTER = 223.1180
MEAN_ANOMALY   = 136.9694

EPHEMERIS_TYPE = 0
CLASSIFICATION_TYPE = U
NORAD_CAT_ID   = 16719
ELEMENT_SET_NO = 999
REV_AT_EPOCH   = 16782
BSTAR          = .36273E-3
MEAN_MOTION_DOT = .22301E-3
MEAN_MOTION_DDOT = 0

